CCSDS_OMM_VERS = 2.0
CREATION_DATE  = 
ORIGINATOR     = 

OBJECT_NAME    = ARIANE 5 R/B
OBJECT_ID      = 2004-049H
CENTER_NAME    = EARTH
REF_FRAME      = TEME
TIME_SYSTEM    = UTC
MEAN_ELEMENT_THEORY = SGP/SGP4

EPOCH          = 2025-11-18T01:23:49.758720
MEAN_MOTION    = 14.84938196
ECCENTRICITY   = .0084545
INCLINATION    = 98.2516
RA_OF_ASC_NODE = 121.4576
ARG_OF_PERICENTER = 353.7327
MEAN_ANOMALY   = 6.2822

EPHEMERIS_TYPE = 0
CLASSIFICATION_TYPE = U
NORAD_CAT_ID   = 28499
ELEMENT_SET_NO = 999
REV_AT_EPOCH   = 12922
BSTAR          = .1409E-3
MEAN_MOTION_DOT = .1214E-4
MEAN_MOTION_DDOT = 0

CCSDS_OMM_VERS = 2.0
CREATION_DATE  = 
ORIGINATOR     = 

OBJECT_NAME    = CZ-2D R/B
OBJECT_ID      = 2005-024B
CENTER_NAME    = EARTH
REF_FRAME      = TEME
TIME_SYSTEM    = UTC
MEAN_ELEMENT_THEORY = SGP/SGP4

EPOCH          = 2025-11-18T03:53:31.437888
MEAN_MOTION    = 15.51604573
ECCENTRICITY   = .0008149
INCLINATION    = 97.3651
RA_OF_ASC_NODE = 328.9948
ARG_OF_PERICENTER = 75.8502
MEAN_ANOMALY   = 284.3655

EPHEMERIS_TYPE = 0
CLASSIFICATION_TYPE = U
NORAD_CAT_ID   = 28738
ELEMENT_SET_NO = 999
REV_AT_EPOCH   = 12244
BSTAR          = .47518E-3
MEAN_MOTION_DOT = .28184E-3
MEAN_MOTION_DDOT = 0

CCSDS_OMM_VERS = 2.0
CREATION_DATE  = 
ORIGINATOR     = 

OBJECT_NAME    = ALOS (DAICHI)
OBJECT_ID      = 2006-002A
CENTER_NAME    = EARTH
REF_FRAME      = TEME
TIME_SYSTEM    = UTC
MEAN_ELEMENT_THEORY = SGP/SGP4

EPOCH          = 2025-11-18T04:21:15.532128
MEAN_MOTION    = 14.69378323
ECCENTRICITY   = .0000843
INCLINATION    = 98.1050
RA_OF_ASC_NODE = 273.8490
ARG_OF_PERICENTER = 59.2678
MEAN_ANOMALY   = 300.8610

EPHEMERIS_TYPE = 0
CLASSIFICATION_TYPE = U
NORAD_CAT_ID   = 28931
ELEMENT_SET_NO = 999
REV_AT_EPOCH   = 5710
BSTAR          = .38382E-3
MEAN_MOTION_DOT = .222E-4
MEAN_MOTION_DDOT = 0

CCSDS_OMM_VERS = 2.0
CREATION_DATE  = 
ORIGINATOR     = 

OBJECT_NAME    = H-2A R/B
OBJECT_ID      = 2006-002B
CENTER_NAME    = EARTH
REF_FRAME      = TEME
TIME_SYSTEM    = UTC
MEAN_ELEMENT_THEORY = SGP/SGP4

EPOCH          = 2025-11-17T22:31:05.568960
MEAN_MOTION    = 15.13893668
ECCENTRICITY   = .0054425
INCLINATION    = 98.2299
RA_OF_ASC_NODE = 94.6776
ARG_OF_PERICENTER = 261.0999
MEAN_ANOMALY   = 98.4066

EPHEMERIS_TYPE = 0
CLASSIFICATION_TYPE = U
NORAD_CAT_ID   = 28932
ELEMENT_SET_NO = 999
REV_AT_EPOCH   = 7751
BSTAR          = .58807E-3
MEAN_MOTION_DOT = .10969E-3
MEAN_MOTION_DDOT = 0

CCSDS_OMM_VERS = 2.0
CREATION_DATE  = 
ORIGINATOR     = 

OBJECT_NAME    = RESURS-DK 1
OBJECT_ID      = 2006-021A
CENTER_NAME    = EARTH
REF_FRAME      = TEME
TIME_SYSTEM    = UTC
MEAN_ELEMENT_THEORY = SGP/SGP4

EPOCH          = 2025-11-17T22:57:17.557344
MEAN_MOTION    = 15.11963057
ECCENTRICITY   = .0007139
INCLINATION    = 69.9312
RA_OF_ASC_NODE = 165.8761
ARG_OF_PERICENTER = 280.3633
MEAN_ANOMALY   = 79.6728

EPHEMERIS_TYPE = 0
CLASSIFICATION_TYPE = U
NORAD_CAT_ID   = 29228
ELEMENT_SET_NO = 999
REV_AT_EPOCH   = 7063
BSTAR          = .18124E-3
MEAN_MOTION_DOT = .3011E-4
MEAN_MOTION_DDOT = 0

CCSDS_OMM_VERS = 2.0
CREATION_DATE  = 
ORIGINATOR     = 

OBJECT_NAME    = CZ-4B R/B
OBJECT_ID      = 2006-046C
CENTER_NAME    = EARTH
REF_FRAME      = TEME
TIME_SYSTEM    = UTC
MEAN_ELEMENT_THEORY = SGP/SGP4

EPOCH          = 2025-11-18T01:52:36.163776
MEAN_MOTION    = 15.15530735
ECCENTRICITY   = .0032824
INCLINATION    = 97.5773
RA_OF_ASC_NODE = 2.2849
ARG_OF_PERICENTER = 295.2608
MEAN_ANOMALY   = 64.5224

EPHEMERIS_TYPE = 0
CLASSIFICATION_TYPE = U
NORAD_CAT_ID   = 29507
ELEMENT_SET_NO = 999
REV_AT_EPOCH   = 4313
BSTAR          = .32168E-3
MEAN_MOTION_DOT = .611E-4
MEAN_MOTION_DDOT = 0

CCSDS_OMM_VERS = 2.0
CREATION_DATE  = 
ORIGINATOR     = 

OBJECT_NAME    = SL-16 R/B
OBJECT_ID      = 2007-029B
CENTER_NAME    = EARTH
REF_FRAME      = TEME
TIME_SYSTEM    = UTC
MEAN_ELEMENT_THEORY = SGP/SGP4

EPOCH          = 2025-11-17T15:52:02.240256
MEAN_MOTION    = 14.14813624
ECCENTRICITY   = .00021785
INCLINATION    = 70.9776
RA_OF_ASC_NODE = 47.8726
ARG_OF_PERICENTER = 261.7726
MEAN_ANOMALY   = 248.1346

EPHEMERIS_TYPE = 0
CLASSIFICATION_TYPE = U
NORAD_CAT_ID   = 31793
ELEMENT_SET_NO = 999
REV_AT_EPOCH   = 94952
BSTAR          = .19914445E-3
MEAN_MOTION_DOT = .336E-5
MEAN_MOTION_DDOT = 0

CCSDS_OMM_VERS = 2.0
CREATION_DATE  = 
ORIGINATOR     = 

OBJECT_NAME    = KORONAS-FOTON
OBJECT_ID      = 2009-003A
CENTER_NAME    = EARTH
REF_FRAME      = TEME
TIME_SYSTEM    = UTC
MEAN_ELEMENT_THEORY = SGP/SGP4

EPOCH          = 2025-11-17T14:54:23.599008
MEAN_MOTION    = 15.40432080
ECCENTRICITY   = .00113776
INCLINATION    = 82.4337
RA_OF_ASC_NODE = 32.1138
ARG_OF_PERICENTER = 193.6954
MEAN_ANOMALY   = 166.3985

EPHEMERIS_TYPE = 0
CLASSIFICATION_TYPE = U
NORAD_CAT_ID   = 33504
ELEMENT_SET_NO = 999
REV_AT_EPOCH   = 92847
BSTAR          = .36737629E-3
MEAN_MOTION_DOT = .1494E-3
MEAN_MOTION_DDOT = 0

CCSDS_OMM_VERS = 2.0
CREATION_DATE  = 
ORIGINATOR     = 

OBJECT_NAME    = CZ-2C R/B
OBJECT_ID      = 2011-030B
CENTER_NAME    = EARTH
REF_FRAME      = TEME
TIME_SYSTEM    = UTC
MEAN_ELEMENT_THEORY = SGP/SGP4

EPOCH          = 2025-11-17T22:15:18.700128
MEAN_MOTION    = 14.80778183
ECCENTRICITY   = .0052968
INCLINATION    = 97.8367
RA_OF_ASC_NODE = 276.5910
ARG_OF_PERICENTER = 355.8687
MEAN_ANOMALY   = 48.4553

EPHEMERIS_TYPE = 0
CLASSIFICATION_TYPE = U
NORAD_CAT_ID   = 37731
ELEMENT_SET_NO = 999
REV_AT_EPOCH   = 77355
BSTAR          = .31476E-3
MEAN_MOTION_DOT = .243E-4
MEAN_MOTION_DDOT = 0

