ARIANE 5 R/B            
1 28499U 04049H   25322.05821480  .00001214  00000+0  14090-3 0  9995
2 28499  98.2516 121.4576 0084545 353.7327   6.2822 14.84938196129226
CZ-2D R/B               
1 28738U 05024B   25322.16216942  .00028184  00000+0  47518-3 0  9994
2 28738  97.3651 328.9948 0008149  75.8502 284.3655 15.51604573122446
ALOS (DAICHI)           
1 28931U 06002A   25322.18142977  .00002220  00000+0  38382-3 0  9996
2 28931  98.1050 273.8490 0000843  59.2678 300.8610 14.69378323 57100
H-2A R/B                
1 28932U 06002B   25321.93825890  .00010969  00000+0  58807-3 0  9994
2 28932  98.2299  94.6776 0054425 261.0999  98.4066 15.13893668 77513
RESURS-DK 1             
1 29228U 06021A   25321.95645321  .00003011  00000+0  18124-3 0  9993
2 29228  69.9312 165.8761 0007139 280.3633  79.6728 15.11963057 70637
CZ-4B R/B               
1 29507U 06046C   25322.07819634  .00006110  00000+0  32168-3 0  9991
2 29507  97.5773   2.2849 0032824 295.2608  64.5224 15.15530735 43138
SL-16 R/B               
1 31793U 07029B   25321.66113704  .00000336  00000+0  19914-3 0  9990
2 31793  70.9776  47.8726 0002178 261.7726 248.1346 14.14813624949525
KORONAS-FOTON           
1 33504U 09003A   25321.62110647  .00014940  00000+0  36738-3 0  9994
2 33504  82.4337  32.1138 0011377 193.6954 166.3985 15.40432080928473
CZ-2C R/B               
1 37731U 11030B   25321.92729977  .00002430  00000+0  31476-3 0  9993
2 37731  97.8367 276.5910 0052968 355.8687  48.4553 14.80778183773558
